[{"OBJECT_NAME":"NOAA 17","OBJECT_ID":"2002-032A","EPOCH":"2026-03-02T22:34:41.210400","MEAN_MOTION":14.26184388,"ECCENTRICITY":0.0010748,"INCLINATION":98.8528,"RA_OF_ASC_NODE":26.4995,"ARG_OF_PERICENTER":303.1686,"MEAN_ANOMALY":56.8462,"EPHEMERIS_TYPE":0,"CLASSIFICATION_TYPE":"U","NORAD_CAT_ID":27453,"ELEMENT_SET_NO":999,"REV_AT_EPOCH":23184,"BSTAR":0.00013294247,"MEAN_MOTION_DOT":2.73e-6,"MEAN_MOTION_DDOT":0},{"OBJECT_NAME":"NOAA 18","OBJECT_ID":"2005-018A","EPOCH":"2026-03-02T21:20:02.977440","MEAN_MOTION":14.13709236,"ECCENTRICITY":0.00153603,"INCLINATION":98.8167,"RA_OF_ASC_NODE":143.0911,"ARG_OF_PERICENTER":93.4756,"MEAN_ANOMALY":266.8174,"EPHEMERIS_TYPE":0,"CLASSIFICATION_TYPE":"U","NORAD_CAT_ID":28654,"ELEMENT_SET_NO":999,"REV_AT_EPOCH":7129,"BSTAR":6.2846611e-5,"MEAN_MOTION_DOT":7.5e-7,"MEAN_MOTION_DDOT":0},{"OBJECT_NAME":"NOAA 19","OBJECT_ID":"2009-005A","EPOCH":"2026-03-02T22:33:10.077408","MEAN_MOTION":14.13455242,"ECCENTRICITY":0.00131491,"INCLINATION":98.962,"RA_OF_ASC_NODE":132.6991,"ARG_OF_PERICENTER":334.7752,"MEAN_ANOMALY":25.2776,"EPHEMERIS_TYPE":0,"CLASSIFICATION_TYPE":"U","NORAD_CAT_ID":33591,"ELEMENT_SET_NO":999,"REV_AT_EPOCH":87947,"BSTAR":5.8935125e-5,"MEAN_MOTION_DOT":6.6e-7,"MEAN_MOTION_DDOT":0},{"OBJECT_NAME":"SUOMI NPP","OBJECT_ID":"2011-061A","EPOCH":"2026-03-02T21:44:56.213952","MEAN_MOTION":14.19541223,"ECCENTRICITY":4.513e-5,"INCLINATION":98.7862,"RA_OF_ASC_NODE":3.5631,"ARG_OF_PERICENTER":295.5056,"MEAN_ANOMALY":64.6073,"EPHEMERIS_TYPE":0,"CLASSIFICATION_TYPE":"U","NORAD_CAT_ID":37849,"ELEMENT_SET_NO":999,"REV_AT_EPOCH":74336,"BSTAR":6.4081588e-5,"MEAN_MOTION_DOT":9.1e-7,"MEAN_MOTION_DDOT":0},{"OBJECT_NAME":"NOAA 20 (JPSS-1)","OBJECT_ID":"2017-073A","EPOCH":"2026-03-02T22:06:00.740160","MEAN_MOTION":14.19533954,"ECCENTRICITY":8.977e-5,"INCLINATION":98.7685,"RA_OF_ASC_NODE":2.3756,"ARG_OF_PERICENTER":146.0304,"MEAN_ANOMALY":214.0929,"EPHEMERIS_TYPE":0,"CLASSIFICATION_TYPE":"U","NORAD_CAT_ID":43013,"ELEMENT_SET_NO":999,"REV_AT_EPOCH":42939,"BSTAR":6.4075244e-5,"MEAN_MOTION_DOT":9.1e-7,"MEAN_MOTION_DDOT":0},{"OBJECT_NAME":"NOAA 21 (JPSS-2)","OBJECT_ID":"2022-150A","EPOCH":"2026-03-02T22:56:05.942112","MEAN_MOTION":14.19550036,"ECCENTRICITY":0.00024952,"INCLINATION":98.7548,"RA_OF_ASC_NODE":2.2989,"ARG_OF_PERICENTER":118.5628,"MEAN_ANOMALY":241.5799,"EPHEMERIS_TYPE":0,"CLASSIFICATION_TYPE":"U","NORAD_CAT_ID":54234,"ELEMENT_SET_NO":999,"REV_AT_EPOCH":17147,"BSTAR":7.0893074e-5,"MEAN_MOTION_DOT":1.06e-6,"MEAN_MOTION_DDOT":0}]
