NOAA 17                 
1 27453U 02032A   26061.94075475  .00000273  00000+0  13294-3 0  9997
2 27453  98.8528  26.4995 0010748 303.1686  56.8462 14.26184388231849
NOAA 18                 
1 28654U 05018A   26061.88892335  .00000075  00000+0  62847-4 0  9992
2 28654  98.8167 143.0911 0015360  93.4756 266.8174 14.13709236 71293
NOAA 19                 
1 33591U 09005A   26061.93969997  .00000066  00000+0  58935-4 0  9996
2 33591  98.9620 132.6991 0013149 334.7752  25.2776 14.13455242879472
SUOMI NPP               
1 37849U 11061A   26061.90620618  .00000091  00000+0  64082-4 0  9990
2 37849  98.7862   3.5631 0000451 295.5056  64.6073 14.19541223743364
NOAA 20 (JPSS-1)        
1 43013U 17073A   26061.92084190  .00000091  00000+0  64075-4 0  9992
2 43013  98.7685   2.3756 0000897 146.0304 214.0929 14.19533954429399
NOAA 21 (JPSS-2)        
1 54234U 22150A   26061.95562433  .00000106  00000+0  70893-4 0  9997
2 54234  98.7548   2.2989 0002495 118.5628 241.5799 14.19550036171473
